TRANSPORTER-17 OBJECT AA
1 69893U 26156AA  26204.44426126  .00002062  00000+0  21194-3 0  9997
2 69893  97.7536 104.6282 0007024  89.0219 271.1805 14.91404536  2406
TRANSPORTER-17 OBJECT AB
1 69894U 26156AB  26204.50972155  .00000685  00000+0  73938-4 0  9996
2 69894  97.7549 104.6988 0007321  93.0044 267.2013 14.91540702  2419
TRANSPORTER-17 OBJECT AC
1 69895U 26156AC  26204.50955489  .00000772  00000+0  82539-4 0  9992
2 69895  97.7514 104.6902 0007932  90.3923 269.8205 14.91557245  2413
TRANSPORTER-17 OBJECT AD
1 69896U 26156AD  26204.50471301  .00001207  00000+0  12445-3 0  9991
2 69896  97.7527 104.7002 0009204 100.3633 259.8624 14.92010672  2417
TRANSPORTER-17 OBJECT AE
1 69897U 26156AE  26204.18289541  .00001307  00000+0  13871-3 0  9994
2 69897  97.7568 104.3591 0003669  95.2261 264.9376 14.90735632  2363
TRANSPORTER-17 OBJECT AF
1 69898U 26156AF  26204.44340870  .00000698  00000+0  75315-4 0  9991
2 69898  97.7546 104.6307 0007121  91.6412 268.5622 14.91468798  2409
TRANSPORTER-17 OBJECT AG
1 69899U 26156AG  26203.77546496  .00000606  00000+0  66622-4 0  9999
2 69899  97.7511 103.9598 0006715  82.6728 277.5253 14.91183543  2305
TRANSPORTER-17 OBJECT AH
1 69900U 26156AH  26204.44662015  .00002221  00000+0  22919-3 0  9998
2 69900  97.7560 104.6301 0006068  85.4444 274.7468 14.91182469  2403
TRANSPORTER-17 OBJECT AJ
1 69901U 26156AJ  26204.17912128  .00000706  00000+0  76801-4 0  9998
2 69901  97.7525 104.3568 0006218  80.3327 279.8593 14.91084601  2367
TRANSPORTER-17 OBJECT AK
1 69902U 26156AK  26204.38133552  .00001477  00000+0  15491-3 0  9991
2 69902  97.7491 104.5473 0005804  77.3686 282.8181 14.91009468  2399
TRANSPORTER-17 OBJECT AL
1 69903U 26156AL  26204.44859419  .00001499  00000+0  15728-3 0  9993
2 69903  97.7575 104.6290 0005048  86.0155 274.1640 14.90994874  2408
TRANSPORTER-17 OBJECT AM
1 69904U 26156AM  26204.44216862  .00001028  00000+0  10797-3 0  9992
2 69904  97.7510 104.6236 0007815  92.2811 267.9302 14.91587874  2291
TRANSPORTER-17 OBJECT AN
1 69905U 26156AN  26204.44816707  .00003158  00000+0  32451-3 0  9994
2 69905  97.7562 104.6285 0005283  84.5977 275.5844 14.91050933  2407
TRANSPORTER-17 OBJECT AP
1 69906U 26156AP  26204.51611720  .00000960  00000+0  10276-3 0  9990
2 69906  97.7473 104.6756 0005571  74.2278 285.9555 14.90952251  2410
TRANSPORTER-17 OBJECT AQ
1 69907U 26156AQ  26204.44911549  .00000525  00000+0  58792-4 0  9998
2 69907  97.7497 104.6139 0005233  78.5192 281.6614 14.90937163  2402
TRANSPORTER-17 OBJECT AR
1 69908U 26156AR  26204.37630354  .00001204  00000+0  12590-3 0  9993
2 69908  97.7518 104.5582 0007579  88.8840 271.3247 14.91476734  2396
TRANSPORTER-17 OBJECT AS
1 69909U 26156AS  26204.51126350  .00000879  00000+0  93611-4 0  9997
2 69909  97.7537 104.6935 0007073  88.4893 271.7136 14.91400865  2410
TRANSPORTER-17 OBJECT AT
1 69910U 26156AT  26204.24762217  .00002869  00000+0  29588-3 0  9999
2 69910  97.7544 104.4254 0004885  87.7990 272.3787 14.90978516  2376
TRANSPORTER-17 OBJECT AU
1 69911U 26156AU  26204.45171892  .00001078  00000+0  11546-3 0  9992
2 69911  97.7536 104.6174 0003718  84.3854 275.7788 14.90702163  2402
TRANSPORTER-17 OBJECT AV
1 69912U 26156AV  26204.24915186  .00001309  00000+0  13866-3 0  9996
2 69912  97.7553 104.4240 0004177  87.4027 272.7670 14.90816564  2374
TRANSPORTER-17 OBJECT AW
1 69913U 26156AW  26204.24824666  .00001146  00000+0  12178-3 0  9993
2 69913  97.7580 104.4297 0004371  95.4831 264.6886 14.90900055  2373
TRANSPORTER-17 OBJECT AX
1 69914U 26156AX  26204.51834397  .00000947  00000+0  10202-3 0  9990
2 69914  97.7557 104.6885 0004414  73.3750 286.7952 14.90747178  2415
TRANSPORTER-17 OBJECT AY
1 69915U 26156AY  26204.44086002  .00001163  00000+0  12107-3 0  9992
2 69915  97.7511 104.6257 0008385  94.5049 265.7128 14.91711668  2403
TRANSPORTER-17 OBJECT AZ
1 69916U 26156AZ  26204.24859681  .00002215  00000+0  23029-3 0  9996
2 69916  97.7513 104.4186 0004552  83.0233 277.1503 14.90877336  2379
TRANSPORTER-17 OBJECT BA
1 69917U 26156BA  26203.82877759  .00001444  00000+0  14596-3 0  9998
2 69917  97.7572 104.0553 0011221 108.1070 252.1372 14.92521525  2317
TRANSPORTER-17 OBJECT BB
1 69918U 26156BB  26204.23923851  .00000656  00000+0  70621-4 0  9996
2 69918  97.7551 104.4378 0007910  98.9811 261.2303 14.91741048  2377
TRANSPORTER-17 OBJECT BC
1 69919U 26156BC  26204.50615535  .00000653  00000+0  70115-4 0  9999
2 69919  97.7518 104.6961 0008748  98.0157 262.2055 14.91870212  2411
MARINA                  
1 69920U 26156BD  26204.23691903  .00001758  00000+0  17892-3 0  9993
2 69920  97.7522 104.4346 0009126  99.1636 261.0616 14.91972962  2378
TRANSPORTER-17 OBJECT BE
1 69921U 26156BE  26204.43880285  .00003195  00000+0  32114-3 0  9990
2 69921  97.7545 104.6376 0008385 101.2679 258.9482 14.91919616  2404
