OBJECT_NAME,OBJECT_ID,EPOCH,MEAN_MOTION,ECCENTRICITY,INCLINATION,RA_OF_ASC_NODE,ARG_OF_PERICENTER,MEAN_ANOMALY,EPHEMERIS_TYPE,CLASSIFICATION_TYPE,NORAD_CAT_ID,ELEMENT_SET_NO,REV_AT_EPOCH,BSTAR,MEAN_MOTION_DOT,MEAN_MOTION_DDOT
TRANSPORTER-17 OBJECT AA,2026-156AA,2026-07-23T10:39:44.172864,14.91404536,.00070244,97.7536,104.6282,89.0219,271.1805,0,U,69893,999,240,.21193802E-3,.2062E-4,0
TRANSPORTER-17 OBJECT AB,2026-156AB,2026-07-23T12:13:59.941920,14.91540702,.00073219,97.7549,104.6988,93.0044,267.2013,0,U,69894,999,241,.73938168E-4,.685E-5,0
TRANSPORTER-17 OBJECT AC,2026-156AC,2026-07-23T12:13:45.542496,14.91557245,.0007932,97.7514,104.6902,90.3923,269.8205,0,U,69895,999,241,.82539067E-4,.772E-5,0
TRANSPORTER-17 OBJECT AD,2026-156AD,2026-07-23T12:06:47.204064,14.92010672,.00092044,97.7527,104.7002,100.3633,259.8624,0,U,69896,999,241,.12445408E-3,.1207E-4,0
TRANSPORTER-17 OBJECT AE,2026-156AE,2026-07-23T04:23:22.163424,14.90735632,.00036697,97.7568,104.3591,95.2261,264.9376,0,U,69897,999,236,.13871381E-3,.1307E-4,0
TRANSPORTER-17 OBJECT AF,2026-156AF,2026-07-23T10:38:30.511680,14.91468798,.00071216,97.7546,104.6307,91.6412,268.5622,0,U,69898,999,240,.75314598E-4,.698E-5,0
TRANSPORTER-17 OBJECT AG,2026-156AG,2026-07-22T18:36:40.172544,14.91183543,.00067154,97.7511,103.9598,82.6728,277.5253,0,U,69899,999,230,.66622357E-4,.606E-5,0
TRANSPORTER-17 OBJECT AH,2026-156AH,2026-07-23T10:43:07.980960,14.91182469,.0006068,97.7560,104.6301,85.4444,274.7468,0,U,69900,999,240,.22918677E-3,.2221E-4,0
TRANSPORTER-17 OBJECT AJ,2026-156AJ,2026-07-23T04:17:56.078592,14.91084601,.00062188,97.7525,104.3568,80.3327,279.8593,0,U,69901,999,236,.76800535E-4,.706E-5,0
TRANSPORTER-17 OBJECT AK,2026-156AK,2026-07-23T09:09:07.388928,14.91009468,.0005804,97.7491,104.5473,77.3686,282.8181,0,U,69902,999,239,.15491367E-3,.1477E-4,0
TRANSPORTER-17 OBJECT AL,2026-156AL,2026-07-23T10:45:58.538016,14.90994874,.00050489,97.7575,104.6290,86.0155,274.1640,0,U,69903,999,240,.15728031E-3,.1499E-4,0
TRANSPORTER-17 OBJECT AM,2026-156AM,2026-07-23T10:36:43.368768,14.91587874,.0007815,97.7510,104.6236,92.2811,267.9302,0,U,69904,999,229,.10796904E-3,.1028E-4,0
TRANSPORTER-17 OBJECT AN,2026-156AN,2026-07-23T10:45:21.634848,14.91050933,.00052831,97.7562,104.6285,84.5977,275.5844,0,U,69905,999,240,.32450704E-3,.3158E-4,0
TRANSPORTER-17 OBJECT AP,2026-156AP,2026-07-23T12:23:12.526080,14.90952251,.00055714,97.7473,104.6756,74.2278,285.9555,0,U,69906,999,241,.10275873E-3,.96E-5,0
TRANSPORTER-17 OBJECT AQ,2026-156AQ,2026-07-23T10:46:43.578336,14.90937163,.00052339,97.7497,104.6139,78.5192,281.6614,0,U,69907,999,240,.58792103E-4,.525E-5,0
TRANSPORTER-17 OBJECT AR,2026-156AR,2026-07-23T09:01:52.625856,14.91476734,.00075796,97.7518,104.5582,88.8840,271.3247,0,U,69908,999,239,.12589595E-3,.1204E-4,0
TRANSPORTER-17 OBJECT AS,2026-156AS,2026-07-23T12:16:13.166400,14.91400865,.00070739,97.7537,104.6935,88.4893,271.7136,0,U,69909,999,241,.93610811E-4,.879E-5,0
TRANSPORTER-17 OBJECT AT,2026-156AT,2026-07-23T05:56:34.555488,14.90978516,.00048857,97.7544,104.4254,87.7990,272.3787,0,U,69910,999,237,.29587737E-3,.2869E-4,0
TRANSPORTER-17 OBJECT AU,2026-156AU,2026-07-23T10:50:28.514688,14.90702163,.00037188,97.7536,104.6174,84.3854,275.7788,0,U,69911,999,240,.11546356E-3,.1078E-4,0
TRANSPORTER-17 OBJECT AV,2026-156AV,2026-07-23T05:58:46.720704,14.90816564,.00041775,97.7553,104.4240,87.4027,272.7670,0,U,69912,999,237,.13866013E-3,.1309E-4,0
TRANSPORTER-17 OBJECT AW,2026-156AW,2026-07-23T05:57:28.511424,14.90900055,.00043717,97.7580,104.4297,95.4831,264.6886,0,U,69913,999,237,.12178135E-3,.1146E-4,0
TRANSPORTER-17 OBJECT AX,2026-156AX,2026-07-23T12:26:24.919008,14.90747178,.00044149,97.7557,104.6885,73.3750,286.7952,0,U,69914,999,241,.10202271E-3,.947E-5,0
TRANSPORTER-17 OBJECT AY,2026-156AY,2026-07-23T10:34:50.305728,14.91711668,.00083851,97.7511,104.6257,94.5049,265.7128,0,U,69915,999,240,.12107494E-3,.1163E-4,0
TRANSPORTER-17 OBJECT AZ,2026-156AZ,2026-07-23T05:57:58.764384,14.90877336,.0004552,97.7513,104.4186,83.0233,277.1503,0,U,69916,999,237,.23028863E-3,.2215E-4,0
TRANSPORTER-17 OBJECT BA,2026-156BA,2026-07-22T19:53:26.383776,14.92521525,.00112212,97.7572,104.0553,108.1070,252.1372,0,U,69917,999,231,.1459634E-3,.1444E-4,0
TRANSPORTER-17 OBJECT BB,2026-156BB,2026-07-23T05:44:30.207264,14.91741048,.00079102,97.7551,104.4378,98.9811,261.2303,0,U,69918,999,237,.70621405E-4,.656E-5,0
TRANSPORTER-17 OBJECT BC,2026-156BC,2026-07-23T12:08:51.822240,14.91870212,.00087481,97.7518,104.6961,98.0157,262.2055,0,U,69919,999,241,.70114963E-4,.653E-5,0
MARINA,2026-156BD,2026-07-23T05:41:09.804192,14.91972962,.00091266,97.7522,104.4346,99.1636,261.0616,0,U,69920,999,237,.17891611E-3,.1758E-4,0
TRANSPORTER-17 OBJECT BE,2026-156BE,2026-07-23T10:31:52.566240,14.91919616,.00083857,97.7545,104.6376,101.2679,258.9482,0,U,69921,999,240,.32114462E-3,.3195E-4,0
